{"fetched_at":"2026-07-21T17:53:20.164Z","source":"https://celestrak.org/NORAD/elements/gp.php?NAME=CAPELLA&FORMAT=JSON","constellation":"capella","records":[{"OBJECT_NAME":"CAPELLA-11 (ACADIA-1)","OBJECT_ID":"2023-126A","EPOCH":"2026-07-20T21:47:19.710528","CLASSIFICATION_TYPE":"U","MEAN_MOTION":14.8530746,"ECCENTRICITY":0.0001843,"INCLINATION":53.0084,"RA_OF_ASC_NODE":38.4551,"ARG_OF_PERICENTER":136.4242,"MEAN_ANOMALY":223.6883,"EPHEMERIS_TYPE":0,"NORAD_CAT_ID":57693,"ELEMENT_SET_NO":999,"REV_AT_EPOCH":15713,"BSTAR":0.00034801061,"MEAN_MOTION_DOT":0.00002788,"MEAN_MOTION_DDOT":0},{"OBJECT_NAME":"CAPELLA-14 (ACADIA-4)","OBJECT_ID":"2024-066C","EPOCH":"2026-07-21T00:02:16.468800","CLASSIFICATION_TYPE":"U","MEAN_MOTION":15.06849888,"ECCENTRICITY":0.00007146,"INCLINATION":45.6035,"RA_OF_ASC_NODE":77.4621,"ARG_OF_PERICENTER":195.2683,"MEAN_ANOMALY":164.818,"EPHEMERIS_TYPE":0,"NORAD_CAT_ID":59444,"ELEMENT_SET_NO":999,"REV_AT_EPOCH":11759,"BSTAR":0.00049942882,"MEAN_MOTION_DOT":0.00007323,"MEAN_MOTION_DDOT":0},{"OBJECT_NAME":"CAPELLA-13 (ACADIA-3)","OBJECT_ID":"2024-142A","EPOCH":"2026-07-21T05:28:13.675584","CLASSIFICATION_TYPE":"U","MEAN_MOTION":14.87658488,"ECCENTRICITY":0.00013458,"INCLINATION":53.0041,"RA_OF_ASC_NODE":268.9803,"ARG_OF_PERICENTER":90.078,"MEAN_ANOMALY":270.0354,"EPHEMERIS_TYPE":0,"NORAD_CAT_ID":60419,"ELEMENT_SET_NO":999,"REV_AT_EPOCH":10547,"BSTAR":0.00033935003,"MEAN_MOTION_DOT":0.00002883,"MEAN_MOTION_DDOT":0},{"OBJECT_NAME":"CAPELLA-15 (ACADIA-5)","OBJECT_ID":"2024-149CE","EPOCH":"2026-07-21T04:21:34.140960","CLASSIFICATION_TYPE":"U","MEAN_MOTION":14.92387301,"ECCENTRICITY":0.00029007,"INCLINATION":97.6765,"RA_OF_ASC_NODE":274.2324,"ARG_OF_PERICENTER":316.3162,"MEAN_ANOMALY":43.7827,"EPHEMERIS_TYPE":0,"NORAD_CAT_ID":60544,"ELEMENT_SET_NO":999,"REV_AT_EPOCH":10492,"BSTAR":0.00021444467,"MEAN_MOTION_DOT":0.0000214,"MEAN_MOTION_DDOT":0},{"OBJECT_NAME":"CAPELLA-17 (ACADIA-7)","OBJECT_ID":"2025-135BH","EPOCH":"2026-07-20T21:09:23.200992","CLASSIFICATION_TYPE":"U","MEAN_MOTION":14.91660002,"ECCENTRICITY":0.00043777,"INCLINATION":97.7709,"RA_OF_ASC_NODE":315.0086,"ARG_OF_PERICENTER":226.5688,"MEAN_ANOMALY":133.5167,"EPHEMERIS_TYPE":0,"NORAD_CAT_ID":64583,"ELEMENT_SET_NO":999,"REV_AT_EPOCH":5887,"BSTAR":0.00039450424,"MEAN_MOTION_DOT":0.0000391,"MEAN_MOTION_DDOT":0},{"OBJECT_NAME":"CAPELLA-16 (ACADIA-6)","OBJECT_ID":"2025-188D","EPOCH":"2026-07-21T02:45:15.478272","CLASSIFICATION_TYPE":"U","MEAN_MOTION":14.94092372,"ECCENTRICITY":0.00058085,"INCLINATION":97.7372,"RA_OF_ASC_NODE":276.7601,"ARG_OF_PERICENTER":120.8455,"MEAN_ANOMALY":239.3337,"EPHEMERIS_TYPE":0,"NORAD_CAT_ID":65318,"ELEMENT_SET_NO":999,"REV_AT_EPOCH":4898,"BSTAR":0.00036802543,"MEAN_MOTION_DOT":0.00003877,"MEAN_MOTION_DDOT":0},{"OBJECT_NAME":"CAPELLA-19 (ACADIA-9)","OBJECT_ID":"2026-004X","EPOCH":"2026-07-20T23:41:17.891232","CLASSIFICATION_TYPE":"U","MEAN_MOTION":14.86648414,"ECCENTRICITY":0.00015264,"INCLINATION":97.8014,"RA_OF_ASC_NODE":199.7497,"ARG_OF_PERICENTER":94.68,"MEAN_ANOMALY":265.459,"EPHEMERIS_TYPE":0,"NORAD_CAT_ID":67384,"ELEMENT_SET_NO":999,"REV_AT_EPOCH":2829,"BSTAR":0.00037276563,"MEAN_MOTION_DOT":0.00003256,"MEAN_MOTION_DDOT":0},{"OBJECT_NAME":"CAPELLA-18 (ACADIA-8)","OBJECT_ID":"2026-004Y","EPOCH":"2026-07-21T06:23:26.819232","CLASSIFICATION_TYPE":"U","MEAN_MOTION":14.86639617,"ECCENTRICITY":0.00014793,"INCLINATION":97.8016,"RA_OF_ASC_NODE":200.1774,"ARG_OF_PERICENTER":90.9745,"MEAN_ANOMALY":269.164,"EPHEMERIS_TYPE":0,"NORAD_CAT_ID":67385,"ELEMENT_SET_NO":999,"REV_AT_EPOCH":2834,"BSTAR":0.00028463696,"MEAN_MOTION_DOT":0.00002473,"MEAN_MOTION_DDOT":0},{"OBJECT_NAME":"CAPELLA-20 (ACADIA-10)","OBJECT_ID":"2026-067BX","EPOCH":"2026-07-20T21:36:49.509792","CLASSIFICATION_TYPE":"U","MEAN_MOTION":14.914767,"ECCENTRICITY":0.0000958,"INCLINATION":97.7562,"RA_OF_ASC_NODE":159.6594,"ARG_OF_PERICENTER":119.0875,"MEAN_ANOMALY":241.044,"EPHEMERIS_TYPE":0,"NORAD_CAT_ID":68485,"ELEMENT_SET_NO":999,"REV_AT_EPOCH":1675,"BSTAR":0.00040400684,"MEAN_MOTION_DOT":0.00003987,"MEAN_MOTION_DDOT":0}]}
