CAPELLA-11 (ACADIA-1)   
1 57693U 23126A   26201.90786702  .00002788  00000+0  34801-3 0  9997
2 57693  53.0084  38.4551 0001843 136.4242 223.6883 14.85307460157133
CAPELLA-14 (ACADIA-4)   
1 59444U 24066C   26202.00157950  .00007323  00000+0  49943-3 0  9999
2 59444  45.6035  77.4621 0000714 195.2683 164.8180 15.06849888117592
CAPELLA-13 (ACADIA-3)   
1 60419U 24142A   26202.22793606  .00002883  00000+0  33935-3 0  9996
2 60419  53.0041 268.9803 0001345  90.0780 270.0354 14.87658488105475
CAPELLA-15 (ACADIA-5)   
1 60544U 24149CE  26202.18164515  .00002140  00000+0  21444-3 0  9996
2 60544  97.6765 274.2324 0002900 316.3162  43.7827 14.92387301104923
CAPELLA-17 (ACADIA-7)   
1 64583U 25135BH  26201.88151853  .00003910  00000+0  39450-3 0  9998
2 64583  97.7709 315.0086 0004377 226.5688 133.5167 14.91660002 58871
CAPELLA-16 (ACADIA-6)   
1 65318U 25188D   26202.11476248  .00003877  00000+0  36803-3 0  9999
2 65318  97.7372 276.7601 0005808 120.8455 239.3337 14.94092372 48985
CAPELLA-19 (ACADIA-9)   
1 67384U 26004X   26201.98701263  .00003256  00000+0  37277-3 0  9991
2 67384  97.8014 199.7497 0001526  94.6800 265.4590 14.86648414 28294
CAPELLA-18 (ACADIA-8)   
1 67385U 26004Y   26202.26628263  .00002473  00000+0  28464-3 0  9990
2 67385  97.8016 200.1774 0001479  90.9745 269.1640 14.86639617 28344
CAPELLA-20 (ACADIA-10)  
1 68485U 26067BX  26201.90057303  .00003987  00000+0  40401-3 0  9998
2 68485  97.7562 159.6594 0000958 119.0875 241.0440 14.91476700 16754
